[{"OBJECT_NAME":"OBJECT C","OBJECT_ID":"2023-104C","EPOCH":"2026-03-09T22:39:44.230752","MEAN_MOTION":15.26846312,"ECCENTRICITY":0.00113074,"INCLINATION":97.273,"RA_OF_ASC_NODE":135.3333,"ARG_OF_PERICENTER":3.876,"MEAN_ANOMALY":356.2565,"EPHEMERIS_TYPE":0,"CLASSIFICATION_TYPE":"U","NORAD_CAT_ID":57426,"ELEMENT_SET_NO":999,"REV_AT_EPOCH":14663,"BSTAR":0.00062618506,"MEAN_MOTION_DOT":0.00016495,"MEAN_MOTION_DDOT":0},{"OBJECT_NAME":"STARLINK-31531","OBJECT_ID":"2024-068Y","EPOCH":"2026-03-09T03:12:42.929280","MEAN_MOTION":15.27570634,"ECCENTRICITY":0.00018776,"INCLINATION":43.0024,"RA_OF_ASC_NODE":342.5063,"ARG_OF_PERICENTER":271.296,"MEAN_ANOMALY":88.7677,"EPHEMERIS_TYPE":0,"CLASSIFICATION_TYPE":"U","NORAD_CAT_ID":59477,"ELEMENT_SET_NO":999,"REV_AT_EPOCH":10906,"BSTAR":-8.0016775e-5,"MEAN_MOTION_DOT":-2.463e-5,"MEAN_MOTION_DDOT":0}]
